ONEWEB-0572             
1 55151U 23004M   26189.93334424  .00000065  00000+0  13474-3 0  9996
2 55151  87.9134   1.5388 0001968  90.8033 269.3324 13.17651173170342
ONEWEB-0573             
1 55152U 23004N   26189.89151953  .00000087  00000+0  18784-3 0  9999
2 55152  87.9176 331.1523 0002738 101.8662 258.2778 13.18686921172554
ONEWEB-0588             
1 55153U 23004P   26189.80891365  .00000026  00000+0  33897-4 0  9995
2 55153  87.9182 331.1673 0002253  87.3167 272.8223 13.18686466172548
ONEWEB-0598             
1 55154U 23004Q   26189.90484710  .00000350  00000+0  95132-3 0  9998
2 55154  87.8882  16.7437 0002409 102.7860 257.3537 13.11415042168740
ONEWEB-0599             
1 55155U 23004R   26189.89452139 -.00000025  00000+0 -96280-4 0  9994
2 55155  87.9137   1.5450 0001812  98.7029 261.4307 13.17650048170343
ONEWEB-0614             
1 55156U 23004S   26189.89976007  .00000514  00000+0  14150-2 0  9995
2 55156  87.8877  16.7529 0001871  82.8881 277.2460 13.11415245168685
ONEWEB-0616             
1 55157U 23004T   26189.93670818  .00000050  00000+0  96753-4 0  9998
2 55157  87.9137   1.5407 0001434 120.7035 239.4238 13.17650617170564
ONEWEB-0617             
1 55158U 23004U   26189.96418789  .00000560  00000+0  15450-2 0  9998
2 55158  87.8881  16.7327 0002071  77.5025 282.6335 13.11418267168714
ONEWEB-0618             
1 55159U 23004V   26189.94736841  .00003418  00000+0  18979-3 0  9994
2 55159  86.9100 168.7986 0011239 198.8624 161.2201 15.13338844185557
ONEWEB-0619             
1 55160U 23004W   26189.89283514 -.00000038  00000+0 -13111-3 0  9994
2 55160  87.9151   1.5318 0001515  83.0377 277.0927 13.17650500170457
ONEWEB-0620             
1 55161U 23004X   26189.95909868  .00000374  00000+0  10182-2 0  9994
2 55161  87.8874  16.7407 0002087  91.7768 268.3599 13.11418600168688
ONEWEB-0621             
1 55162U 23004Y   26189.22325665 -.00000030  00000+0 -12076-3 0  9998
2 55162  87.8886  16.8784 0001826  81.9429 278.1906 13.11413955168562
ONEWEB-0622             
1 55163U 23004Z   26189.91501559 -.00000121  00000+0 -37722-3 0  9999
2 55163  87.8891  16.7434 0002370  75.8090 284.3302 13.11414007168648
ONEWEB-0623             
1 55164U 23004AA  26189.88776664  .00000013  00000+0  33407-6 0  9994
2 55164  87.9133   1.5603 0001880  66.8374 293.2956 13.17648452170443
ONEWEB-0624             
1 55165U 23004AB  26189.91444994 -.00000229  00000+0 -66665-3 0  9997
2 55165  87.8960 346.2605 0001788  90.9738 269.1596 13.12928458170928
ONEWEB-0625             
1 55166U 23004AC  26189.87764635  .00000039  00000+0  67735-4 0  9997
2 55166  87.9139   1.5587 0001733  94.5159 265.6171 13.17650812170432
ONEWEB-0626             
1 55167U 23004AD  26189.86753979  .00000041  00000+0  73014-4 0  9996
2 55167  87.9140   1.5601 0002139  99.2405 260.8968 13.17650498170430
ONEWEB-0627             
1 55168U 23004AE  26189.93164703  .00000004  00000+0 -23302-4 0  9991
2 55168  87.9140   1.5477 0001856  77.9614 282.1725 13.17648277170443
ONEWEB-0628             
1 55169U 23004AF  26189.90391032  .00000140  00000+0  35356-3 0  9997
2 55169  87.8957 346.3352 0001700  71.5215 288.6099 13.12441381170881
ONEWEB-0629             
1 55170U 23004AG  26189.90718281  .00000001  00000+0 -30689-4 0  9990
2 55170  87.9136   1.5487 0001588  86.4652 273.6661 13.17649165170442
ONEWEB-0631             
1 55171U 23004AH  26189.87804634  .00000044  00000+0  77905-4 0  9993
2 55171  87.9189 331.1222 0002364  92.7098 267.4304 13.18686430172531
ONEWEB-0709             
1 55172U 23004AJ  26189.94892363 -.00000069  00000+0 -22949-3 0  9994
2 55172  87.8875  16.7452 0002525 103.5511 256.5899 13.11418523168727
ONEWEB-0710             
1 55173U 23004AK  26189.84558211  .00000076  00000+0  16291-3 0  9994
2 55173  87.9139   1.5563 0001962  87.1748 272.9608 13.17647936170439
ONEWEB-0711             
1 55174U 23004AL  26189.46231604 -.00000345  00000+0 -10087-2 0  9994
2 55174  87.8881  16.8300 0002135  69.7914 290.3443 13.11415014168628
ONEWEB-0713             
1 55175U 23004AM  26189.93874845 -.00000439  00000+0 -12759-2 0  9999
2 55175  87.8886  16.7373 0002004  78.7108 281.4246 13.11416869168679
ONEWEB-0715             
1 55176U 23004AN  26189.93365946 -.00000498  00000+0 -14399-2 0  9994
2 55176  87.8880  16.7380 0002516  94.8644 265.2771 13.11415929168718
ONEWEB-0716             
1 55177U 23004AP  26189.76289465  .00000018  00000+0  12914-4 0  9996
2 55177  87.9136   1.5754 0001720  97.4505 262.6822 13.17648051170421
ONEWEB-0717             
1 55178U 23004AQ  26189.89790041  .00000043  00000+0  78344-4 0  9995
2 55178  87.9146   1.5383 0002234  79.0573 281.0810 13.17649916170493
ONEWEB-0719             
1 55179U 23004AR  26189.90802159 -.00000017  00000+0 -77015-4 0  9999
2 55179  87.9146   1.5167 0001677  93.0750 267.0573 13.17650200170440
ONEWEB-0530             
1 55796U 23029A   26189.68061353 -.00000044  00000+0 -14023-3 0  9998
2 55796  87.9178 270.1846 0001950  85.9494 274.1862 13.20772718163981
