OBJECT_NAME,OBJECT_ID,EPOCH,MEAN_MOTION,ECCENTRICITY,INCLINATION,RA_OF_ASC_NODE,ARG_OF_PERICENTER,MEAN_ANOMALY,EPHEMERIS_TYPE,CLASSIFICATION_TYPE,NORAD_CAT_ID,ELEMENT_SET_NO,REV_AT_EPOCH,BSTAR,MEAN_MOTION_DOT,MEAN_MOTION_DDOT
ONEWEB-0572,2023-004M,2026-07-08T22:24:00.942336,13.17651173,.00019687,87.9134,1.5388,90.8033,269.3324,0,U,55151,999,17034,.13473563E-3,.65E-6,0
ONEWEB-0573,2023-004N,2026-07-08T21:23:47.287392,13.18686921,.00027385,87.9176,331.1523,101.8662,258.2778,0,U,55152,999,17255,.18783678E-3,.87E-6,0
ONEWEB-0588,2023-004P,2026-07-08T19:24:50.139360,13.18686466,.00022533,87.9182,331.1673,87.3167,272.8223,0,U,55153,999,17254,.33897358E-4,.26E-6,0
ONEWEB-0598,2023-004Q,2026-07-08T21:42:58.789440,13.11415042,.00024094,87.8882,16.7437,102.7860,257.3537,0,U,55154,999,16874,.95132238E-3,.35E-5,0
ONEWEB-0599,2023-004R,2026-07-08T21:28:06.648096,13.17650048,.00018122,87.9137,1.5450,98.7029,261.4307,0,U,55155,999,17034,-.96280252E-4,-.25E-6,0
ONEWEB-0614,2023-004S,2026-07-08T21:35:39.270048,13.11415245,.00018714,87.8877,16.7529,82.8881,277.2460,0,U,55156,999,16868,.14149502E-2,.514E-5,0
ONEWEB-0616,2023-004T,2026-07-08T22:28:51.586752,13.17650617,.00014349,87.9137,1.5407,120.7035,239.4238,0,U,55157,999,17056,.96752977E-4,.5E-6,0
ONEWEB-0617,2023-004U,2026-07-08T23:08:25.833696,13.11418267,.00020713,87.8881,16.7327,77.5025,282.6335,0,U,55158,999,16871,.1544951E-2,.56E-5,0
ONEWEB-0618,2023-004V,2026-07-08T22:44:12.630624,15.13338844,.00112393,86.9100,168.7986,198.8624,161.2201,0,U,55159,999,18555,.18978743E-3,.3418E-4,0
ONEWEB-0619,2023-004W,2026-07-08T21:25:40.956096,13.17650500,.00015152,87.9151,1.5318,83.0377,277.0927,0,U,55160,999,17045,-.1311053E-3,-.38E-6,0
ONEWEB-0620,2023-004X,2026-07-08T23:01:06.125952,13.11418600,.00020872,87.8874,16.7407,91.7768,268.3599,0,U,55161,999,16868,.10182113E-2,.374E-5,0
ONEWEB-0621,2023-004Y,2026-07-08T05:21:29.374560,13.11413955,.00018269,87.8886,16.8784,81.9429,278.1906,0,U,55162,999,16856,-.12076195E-3,-.3E-6,0
ONEWEB-0622,2023-004Z,2026-07-08T21:57:37.346976,13.11414007,.00023701,87.8891,16.7434,75.8090,284.3302,0,U,55163,999,16864,-.37722371E-3,-.121E-5,0
ONEWEB-0623,2023-004AA,2026-07-08T21:18:23.037696,13.17648452,.00018804,87.9133,1.5603,66.8374,293.2956,0,U,55164,999,17044,.334071E-6,.13E-6,0
ONEWEB-0624,2023-004AB,2026-07-08T21:56:48.474816,13.12928458,.00017883,87.8960,346.2605,90.9738,269.1596,0,U,55165,999,17092,-.66664854E-3,-.229E-5,0
ONEWEB-0625,2023-004AC,2026-07-08T21:03:48.644640,13.17650812,.00017339,87.9139,1.5587,94.5159,265.6171,0,U,55166,999,17043,.67734775E-4,.39E-6,0
ONEWEB-0626,2023-004AD,2026-07-08T20:49:15.437856,13.17650498,.00021398,87.9140,1.5601,99.2405,260.8968,0,U,55167,999,17043,.73014088E-4,.41E-6,0
ONEWEB-0627,2023-004AE,2026-07-08T22:21:34.303392,13.17648277,.00018567,87.9140,1.5477,77.9614,282.1725,0,U,55168,999,17044,-.2330191E-4,.4E-7,0
ONEWEB-0628,2023-004AF,2026-07-08T21:41:37.851648,13.12441381,.00017003,87.8957,346.3352,71.5215,288.6099,0,U,55169,999,17088,.3535648E-3,.14E-5,0
ONEWEB-0629,2023-004AG,2026-07-08T21:46:20.594784,13.17649165,.00015886,87.9136,1.5487,86.4652,273.6661,0,U,55170,999,17044,-.30688556E-4,.1E-7,0
ONEWEB-0631,2023-004AH,2026-07-08T21:04:23.203776,13.18686430,.00023645,87.9189,331.1222,92.7098,267.4304,0,U,55171,999,17253,.77905419E-4,.44E-6,0
ONEWEB-0709,2023-004AJ,2026-07-08T22:46:27.001632,13.11418523,.00025256,87.8875,16.7452,103.5511,256.5899,0,U,55172,999,16872,-.22948994E-3,-.69E-6,0
ONEWEB-0710,2023-004AK,2026-07-08T20:17:38.294304,13.17647936,.0001962,87.9139,1.5563,87.1748,272.9608,0,U,55173,999,17043,.16290853E-3,.76E-6,0
ONEWEB-0711,2023-004AL,2026-07-08T11:05:44.105856,13.11415014,.0002135,87.8881,16.8300,69.7914,290.3443,0,U,55174,999,16862,-.10086751E-2,-.345E-5,0
ONEWEB-0713,2023-004AM,2026-07-08T22:31:47.866080,13.11416869,.00020048,87.8886,16.7373,78.7108,281.4246,0,U,55175,999,16867,-.1275868E-2,-.439E-5,0
ONEWEB-0715,2023-004AN,2026-07-08T22:24:28.177344,13.11415929,.00025167,87.8880,16.7380,94.8644,265.2771,0,U,55176,999,16871,-.14398643E-2,-.498E-5,0
ONEWEB-0716,2023-004AP,2026-07-08T18:18:34.097760,13.17648051,.00017206,87.9136,1.5754,97.4505,262.6822,0,U,55177,999,17042,.12913816E-4,.18E-6,0
ONEWEB-0717,2023-004AQ,2026-07-08T21:32:58.595424,13.17649916,.00022342,87.9146,1.5383,79.0573,281.0810,0,U,55178,999,17049,.78344357E-4,.43E-6,0
ONEWEB-0719,2023-004AR,2026-07-08T21:47:33.065376,13.17650200,.00016775,87.9146,1.5167,93.0750,267.0573,0,U,55179,999,17044,-.77015469E-4,-.17E-6,0
ONEWEB-0530,2023-029A,2026-07-08T16:20:05.008992,13.20772718,.00019505,87.9178,270.1846,85.9494,274.1862,0,U,55796,999,16398,-.14022522E-3,-.44E-6,0
